[{"OBJECT_NAME":"STARLINK-1458","OBJECT_ID":"2020-035U","EPOCH":"2026-03-09T08:30:04.028256","MEAN_MOTION":15.43164244,"ECCENTRICITY":0.00069021,"INCLINATION":53.0533,"RA_OF_ASC_NODE":57.0913,"ARG_OF_PERICENTER":77.6048,"MEAN_ANOMALY":282.5729,"EPHEMERIS_TYPE":0,"CLASSIFICATION_TYPE":"U","NORAD_CAT_ID":45675,"ELEMENT_SET_NO":999,"REV_AT_EPOCH":31880,"BSTAR":0.001001866,"MEAN_MOTION_DOT":0.00044975,"MEAN_MOTION_DDOT":0},{"OBJECT_NAME":"COSMOS 2251 DEB","OBJECT_ID":"1993-036AMV","EPOCH":"2026-03-09T05:38:06.550656","MEAN_MOTION":15.39543317,"ECCENTRICITY":0.00779257,"INCLINATION":73.9961,"RA_OF_ASC_NODE":355.5603,"ARG_OF_PERICENTER":37.2584,"MEAN_ANOMALY":111.9555,"EPHEMERIS_TYPE":0,"CLASSIFICATION_TYPE":"U","NORAD_CAT_ID":35602,"ELEMENT_SET_NO":999,"REV_AT_EPOCH":91420,"BSTAR":0.00072859847,"MEAN_MOTION_DOT":0.00031956,"MEAN_MOTION_DDOT":0}]
